[{"OBJECT_NAME":"ONEWEB-0192","OBJECT_ID":"2021-031N","EPOCH":"2026-03-09T16:21:59.517504","MEAN_MOTION":13.14502505,"ECCENTRICITY":0.00017307,"INCLINATION":87.8976,"RA_OF_ASC_NODE":309.5687,"ARG_OF_PERICENTER":82.9257,"MEAN_ANOMALY":277.207,"EPHEMERIS_TYPE":0,"CLASSIFICATION_TYPE":"U","NORAD_CAT_ID":48222,"ELEMENT_SET_NO":999,"REV_AT_EPOCH":23510,"BSTAR":-0.00030200996,"MEAN_MOTION_DOT":-9.9e-7,"MEAN_MOTION_DDOT":0},{"OBJECT_NAME":"DELTA 2 R\/B(1)","OBJECT_ID":"1998-002B","EPOCH":"2026-03-09T16:16:49.610208","MEAN_MOTION":13.62764133,"ECCENTRICITY":0.03553022,"INCLINATION":26.8821,"RA_OF_ASC_NODE":191.8311,"ARG_OF_PERICENTER":58.2661,"MEAN_ANOMALY":77.5481,"EPHEMERIS_TYPE":0,"CLASSIFICATION_TYPE":"U","NORAD_CAT_ID":25135,"ELEMENT_SET_NO":999,"REV_AT_EPOCH":40329,"BSTAR":3.3002316e-5,"MEAN_MOTION_DOT":1.48e-6,"MEAN_MOTION_DDOT":0}]
